[{"OBJECT_NAME":"STARLINK-3241","OBJECT_ID":"2021-115X","EPOCH":"2026-01-23T21:54:00.796608","MEAN_MOTION":15.08841732,"ECCENTRICITY":0.0001362,"INCLINATION":53.2185,"RA_OF_ASC_NODE":350.103,"ARG_OF_PERICENTER":88.7266,"MEAN_ANOMALY":271.3883,"EPHEMERIS_TYPE":0,"CLASSIFICATION_TYPE":"U","NORAD_CAT_ID":49745,"ELEMENT_SET_NO":999,"REV_AT_EPOCH":22877,"BSTAR":0.00016214813,"MEAN_MOTION_DOT":2.294e-5,"MEAN_MOTION_DDOT":0},{"OBJECT_NAME":"STARLINK-3233","OBJECT_ID":"2021-115Y","EPOCH":"2026-01-23T14:27:30.971520","MEAN_MOTION":15.08833852,"ECCENTRICITY":0.00013934,"INCLINATION":53.2202,"RA_OF_ASC_NODE":351.5271,"ARG_OF_PERICENTER":101.8896,"MEAN_ANOMALY":258.2253,"EPHEMERIS_TYPE":0,"CLASSIFICATION_TYPE":"U","NORAD_CAT_ID":49746,"ELEMENT_SET_NO":999,"REV_AT_EPOCH":22872,"BSTAR":0.00028235509,"MEAN_MOTION_DOT":4.208e-5,"MEAN_MOTION_DDOT":0},{"OBJECT_NAME":"STARLINK-3247","OBJECT_ID":"2021-115Z","EPOCH":"2026-01-23T22:08:33.065088","MEAN_MOTION":15.08837403,"ECCENTRICITY":0.000124,"INCLINATION":53.2188,"RA_OF_ASC_NODE":350.0876,"ARG_OF_PERICENTER":91.7312,"MEAN_ANOMALY":268.3822,"EPHEMERIS_TYPE":0,"CLASSIFICATION_TYPE":"U","NORAD_CAT_ID":49747,"ELEMENT_SET_NO":999,"REV_AT_EPOCH":22877,"BSTAR":0.0002590702,"MEAN_MOTION_DOT":3.837e-5,"MEAN_MOTION_DDOT":0},{"OBJECT_NAME":"STARLINK-3248","OBJECT_ID":"2021-115AA","EPOCH":"2026-01-23T15:15:07.336512","MEAN_MOTION":15.08829976,"ECCENTRICITY":0.00012087,"INCLINATION":53.2179,"RA_OF_ASC_NODE":350.9524,"ARG_OF_PERICENTER":91.7063,"MEAN_ANOMALY":268.4068,"EPHEMERIS_TYPE":0,"CLASSIFICATION_TYPE":"U","NORAD_CAT_ID":49748,"ELEMENT_SET_NO":999,"REV_AT_EPOCH":22874,"BSTAR":-3.9384394e-5,"MEAN_MOTION_DOT":-9.14e-6,"MEAN_MOTION_DDOT":0},{"OBJECT_NAME":"STARLINK-3250","OBJECT_ID":"2021-115AB","EPOCH":"2026-01-23T14:55:26.501664","MEAN_MOTION":15.08832711,"ECCENTRICITY":0.00012852,"INCLINATION":53.2198,"RA_OF_ASC_NODE":351.6812,"ARG_OF_PERICENTER":86.5804,"MEAN_ANOMALY":273.5335,"EPHEMERIS_TYPE":0,"CLASSIFICATION_TYPE":"U","NORAD_CAT_ID":49749,"ELEMENT_SET_NO":999,"REV_AT_EPOCH":22872,"BSTAR":0.00025216209,"MEAN_MOTION_DOT":3.727e-5,"MEAN_MOTION_DDOT":0},{"OBJECT_NAME":"STARLINK-3236","OBJECT_ID":"2021-115AC","EPOCH":"2026-01-23T14:50:06.091584","MEAN_MOTION":15.08857602,"ECCENTRICITY":0.00014201,"INCLINATION":53.2185,"RA_OF_ASC_NODE":351.4665,"ARG_OF_PERICENTER":96.3183,"MEAN_ANOMALY":263.7971,"EPHEMERIS_TYPE":0,"CLASSIFICATION_TYPE":"U","NORAD_CAT_ID":49750,"ELEMENT_SET_NO":999,"REV_AT_EPOCH":22873,"BSTAR":0.00052776533,"MEAN_MOTION_DOT":8.125e-5,"MEAN_MOTION_DDOT":0},{"OBJECT_NAME":"STARLINK-3229","OBJECT_ID":"2021-115AD","EPOCH":"2026-01-23T22:19:07.095936","MEAN_MOTION":15.08863602,"ECCENTRICITY":0.00020431,"INCLINATION":53.2185,"RA_OF_ASC_NODE":349.9832,"ARG_OF_PERICENTER":96.9357,"MEAN_ANOMALY":263.1867,"EPHEMERIS_TYPE":0,"CLASSIFICATION_TYPE":"U","NORAD_CAT_ID":49751,"ELEMENT_SET_NO":999,"REV_AT_EPOCH":22878,"BSTAR":0.00075121478,"MEAN_MOTION_DOT":0.00011695,"MEAN_MOTION_DDOT":0},{"OBJECT_NAME":"STARLINK-3209","OBJECT_ID":"2021-115AE","EPOCH":"2026-01-23T13:37:14.041632","MEAN_MOTION":15.08844143,"ECCENTRICITY":0.00016591,"INCLINATION":53.2205,"RA_OF_ASC_NODE":341.6926,"ARG_OF_PERICENTER":81.4824,"MEAN_ANOMALY":278.6356,"EPHEMERIS_TYPE":0,"CLASSIFICATION_TYPE":"U","NORAD_CAT_ID":49752,"ELEMENT_SET_NO":999,"REV_AT_EPOCH":22886,"BSTAR":0.0002906584,"MEAN_MOTION_DOT":4.341e-5,"MEAN_MOTION_DDOT":0},{"OBJECT_NAME":"STARLINK-3200","OBJECT_ID":"2021-115AF","EPOCH":"2026-01-23T14:43:25.799520","MEAN_MOTION":15.08831,"ECCENTRICITY":0.00013419,"INCLINATION":53.2195,"RA_OF_ASC_NODE":351.4777,"ARG_OF_PERICENTER":87.6761,"MEAN_ANOMALY":272.4385,"EPHEMERIS_TYPE":0,"CLASSIFICATION_TYPE":"U","NORAD_CAT_ID":49753,"ELEMENT_SET_NO":999,"REV_AT_EPOCH":22873,"BSTAR":0.00019846722,"MEAN_MOTION_DOT":2.871e-5,"MEAN_MOTION_DDOT":0},{"OBJECT_NAME":"STARLINK-3193","OBJECT_ID":"2021-115AG","EPOCH":"2026-01-23T20:02:43.128960","MEAN_MOTION":15.08834631,"ECCENTRICITY":0.00012103,"INCLINATION":53.2192,"RA_OF_ASC_NODE":340.5862,"ARG_OF_PERICENTER":74.9051,"MEAN_ANOMALY":285.2075,"EPHEMERIS_TYPE":0,"CLASSIFICATION_TYPE":"U","NORAD_CAT_ID":49754,"ELEMENT_SET_NO":999,"REV_AT_EPOCH":22890,"BSTAR":0.00019054619,"MEAN_MOTION_DOT":2.746e-5,"MEAN_MOTION_DDOT":0},{"OBJECT_NAME":"STARLINK-3210","OBJECT_ID":"2021-115AH","EPOCH":"2026-01-23T21:22:14.383200","MEAN_MOTION":15.08836251,"ECCENTRICITY":0.00013051,"INCLINATION":53.2188,"RA_OF_ASC_NODE":350.2826,"ARG_OF_PERICENTER":75.7781,"MEAN_ANOMALY":284.3356,"EPHEMERIS_TYPE":0,"CLASSIFICATION_TYPE":"U","NORAD_CAT_ID":49755,"ELEMENT_SET_NO":999,"REV_AT_EPOCH":22877,"BSTAR":0.00047293119,"MEAN_MOTION_DOT":7.246e-5,"MEAN_MOTION_DDOT":0},{"OBJECT_NAME":"STARLINK-3207","OBJECT_ID":"2021-115AJ","EPOCH":"2026-01-23T13:51:45.166176","MEAN_MOTION":15.08830298,"ECCENTRICITY":0.00012044,"INCLINATION":53.2197,"RA_OF_ASC_NODE":341.6377,"ARG_OF_PERICENTER":91.5934,"MEAN_ANOMALY":268.5196,"EPHEMERIS_TYPE":0,"CLASSIFICATION_TYPE":"U","NORAD_CAT_ID":49756,"ELEMENT_SET_NO":999,"REV_AT_EPOCH":22886,"BSTAR":0.00027263661,"MEAN_MOTION_DOT":4.053e-5,"MEAN_MOTION_DDOT":0},{"OBJECT_NAME":"STARLINK-3197","OBJECT_ID":"2021-115AK","EPOCH":"2026-01-23T20:04:04.027008","MEAN_MOTION":15.08844201,"ECCENTRICITY":0.00012649,"INCLINATION":53.2191,"RA_OF_ASC_NODE":340.486,"ARG_OF_PERICENTER":89.5333,"MEAN_ANOMALY":270.5804,"EPHEMERIS_TYPE":0,"CLASSIFICATION_TYPE":"U","NORAD_CAT_ID":49757,"ELEMENT_SET_NO":999,"REV_AT_EPOCH":22890,"BSTAR":0.00028225002,"MEAN_MOTION_DOT":4.207e-5,"MEAN_MOTION_DDOT":0},{"OBJECT_NAME":"STARLINK-3194","OBJECT_ID":"2021-115AL","EPOCH":"2026-01-23T04:30:02.819232","MEAN_MOTION":15.08822367,"ECCENTRICITY":0.00011479,"INCLINATION":53.2194,"RA_OF_ASC_NODE":343.3897,"ARG_OF_PERICENTER":85.3408,"MEAN_ANOMALY":274.7715,"EPHEMERIS_TYPE":0,"CLASSIFICATION_TYPE":"U","NORAD_CAT_ID":49758,"ELEMENT_SET_NO":999,"REV_AT_EPOCH":22880,"BSTAR":0.00022876211,"MEAN_MOTION_DOT":3.353e-5,"MEAN_MOTION_DDOT":0},{"OBJECT_NAME":"STARLINK-3204","OBJECT_ID":"2021-115AM","EPOCH":"2026-01-23T23:18:46.085472","MEAN_MOTION":15.08838718,"ECCENTRICITY":0.00012199,"INCLINATION":53.2186,"RA_OF_ASC_NODE":339.8705,"ARG_OF_PERICENTER":81.4331,"MEAN_ANOMALY":278.68,"EPHEMERIS_TYPE":0,"CLASSIFICATION_TYPE":"U","NORAD_CAT_ID":49759,"ELEMENT_SET_NO":999,"REV_AT_EPOCH":22892,"BSTAR":0.00039247208,"MEAN_MOTION_DOT":5.964e-5,"MEAN_MOTION_DDOT":0},{"OBJECT_NAME":"STARLINK-3199","OBJECT_ID":"2021-115AN","EPOCH":"2026-01-23T20:34:29.449056","MEAN_MOTION":15.08840034,"ECCENTRICITY":0.00011058,"INCLINATION":53.2194,"RA_OF_ASC_NODE":340.3827,"ARG_OF_PERICENTER":101.749,"MEAN_ANOMALY":258.3626,"EPHEMERIS_TYPE":0,"CLASSIFICATION_TYPE":"U","NORAD_CAT_ID":49760,"ELEMENT_SET_NO":999,"REV_AT_EPOCH":22891,"BSTAR":0.00027214382,"MEAN_MOTION_DOT":4.046e-5,"MEAN_MOTION_DDOT":0},{"OBJECT_NAME":"STARLINK-3203","OBJECT_ID":"2021-115AP","EPOCH":"2026-01-23T13:57:03.231360","MEAN_MOTION":15.08830804,"ECCENTRICITY":0.00012316,"INCLINATION":53.2195,"RA_OF_ASC_NODE":341.6215,"ARG_OF_PERICENTER":87.0197,"MEAN_ANOMALY":273.0936,"EPHEMERIS_TYPE":0,"CLASSIFICATION_TYPE":"U","NORAD_CAT_ID":49761,"ELEMENT_SET_NO":999,"REV_AT_EPOCH":22886,"BSTAR":0.00031153276,"MEAN_MOTION_DOT":4.672e-5,"MEAN_MOTION_DDOT":0},{"OBJECT_NAME":"STARLINK-3195","OBJECT_ID":"2021-115AQ","EPOCH":"2026-01-23T20:45:05.950080","MEAN_MOTION":15.08833767,"ECCENTRICITY":0.00016436,"INCLINATION":53.2202,"RA_OF_ASC_NODE":340.3512,"ARG_OF_PERICENTER":90.0214,"MEAN_ANOMALY":270.0966,"EPHEMERIS_TYPE":0,"CLASSIFICATION_TYPE":"U","NORAD_CAT_ID":49762,"ELEMENT_SET_NO":999,"REV_AT_EPOCH":22891,"BSTAR":0.00034392102,"MEAN_MOTION_DOT":5.189e-5,"MEAN_MOTION_DDOT":0},{"OBJECT_NAME":"STARLINK-3198","OBJECT_ID":"2021-115AR","EPOCH":"2026-01-23T14:07:38.848512","MEAN_MOTION":15.08846708,"ECCENTRICITY":0.00014341,"INCLINATION":53.2192,"RA_OF_ASC_NODE":341.5888,"ARG_OF_PERICENTER":105.4744,"MEAN_ANOMALY":254.6407,"EPHEMERIS_TYPE":0,"CLASSIFICATION_TYPE":"U","NORAD_CAT_ID":49763,"ELEMENT_SET_NO":999,"REV_AT_EPOCH":22887,"BSTAR":0.00027250387,"MEAN_MOTION_DOT":4.052e-5,"MEAN_MOTION_DDOT":0},{"OBJECT_NAME":"STARLINK-3227","OBJECT_ID":"2021-115AT","EPOCH":"2026-01-23T20:41:09.768768","MEAN_MOTION":15.08829576,"ECCENTRICITY":8.764e-5,"INCLINATION":53.219,"RA_OF_ASC_NODE":340.3698,"ARG_OF_PERICENTER":88.9267,"MEAN_ANOMALY":271.1825,"EPHEMERIS_TYPE":0,"CLASSIFICATION_TYPE":"U","NORAD_CAT_ID":49765,"ELEMENT_SET_NO":999,"REV_AT_EPOCH":22891,"BSTAR":0.00019824219,"MEAN_MOTION_DOT":2.868e-5,"MEAN_MOTION_DDOT":0},{"OBJECT_NAME":"STARLINK-3190","OBJECT_ID":"2021-115AU","EPOCH":"2026-01-23T14:40:49.082880","MEAN_MOTION":15.08851537,"ECCENTRICITY":0.00015958,"INCLINATION":53.2207,"RA_OF_ASC_NODE":341.4936,"ARG_OF_PERICENTER":102.1343,"MEAN_ANOMALY":257.9828,"EPHEMERIS_TYPE":0,"CLASSIFICATION_TYPE":"U","NORAD_CAT_ID":49766,"ELEMENT_SET_NO":999,"REV_AT_EPOCH":22887,"BSTAR":0.0001642328,"MEAN_MOTION_DOT":2.328e-5,"MEAN_MOTION_DDOT":0},{"OBJECT_NAME":"STARLINK-3192","OBJECT_ID":"2021-115AV","EPOCH":"2026-01-23T20:50:23.571168","MEAN_MOTION":15.08825215,"ECCENTRICITY":0.00014035,"INCLINATION":53.2171,"RA_OF_ASC_NODE":340.3304,"ARG_OF_PERICENTER":94.7343,"MEAN_ANOMALY":265.3809,"EPHEMERIS_TYPE":0,"CLASSIFICATION_TYPE":"U","NORAD_CAT_ID":49767,"ELEMENT_SET_NO":999,"REV_AT_EPOCH":22891,"BSTAR":2.2279863e-5,"MEAN_MOTION_DOT":6.7e-7,"MEAN_MOTION_DDOT":0},{"OBJECT_NAME":"STARLINK-3196","OBJECT_ID":"2021-115AW","EPOCH":"2026-01-23T21:11:34.639584","MEAN_MOTION":15.08843657,"ECCENTRICITY":0.00010286,"INCLINATION":53.2187,"RA_OF_ASC_NODE":340.2672,"ARG_OF_PERICENTER":79.6418,"MEAN_ANOMALY":280.469,"EPHEMERIS_TYPE":0,"CLASSIFICATION_TYPE":"U","NORAD_CAT_ID":49768,"ELEMENT_SET_NO":999,"REV_AT_EPOCH":22891,"BSTAR":0.00025185398,"MEAN_MOTION_DOT":3.723e-5,"MEAN_MOTION_DDOT":0}]
